{
  "type": "FeatureCollection",
  "features": [
    {
      "type": "Feature",
      "properties": {
        "norad_id": 28054,
        "name": "DMSP 5D-3 F16 (USA 172)",
        "group": "weather",
        "lat": -36.860843390909,
        "lon": 178.00155996040647,
        "alt_km": 851.5135944369604,
        "timestamp": "2025-12-13T08:49:15.336250+00:00",
        "meta_object_name": "DMSP 5D-3 F16 (USA 172)",
        "meta_object_id": "2003-048A",
        "meta_epoch": "2025-12-13T01:06:39.006720",
        "meta_mean_motion": 14.14424303,
        "meta_eccentricity": 0.00064903,
        "meta_inclination": 99.0047,
        "meta_ra_of_asc_node": 4.5057,
        "meta_arg_of_pericenter": 319.9597,
        "meta_mean_anomaly": 62.5213,
        "meta_ephemeris_type": 0,
        "meta_classification_type": "U",
        "meta_norad_cat_id": 28054,
        "meta_element_set_no": 999,
        "meta_rev_at_epoch": 14317,
        "meta_bstar": 0.00013231216,
        "meta_mean_motion_dot": 2.08e-06,
        "meta_mean_motion_ddot": 0,
        "tle_line1": "1 28054U 03048A   25347.04628480  .00000208  00000+0  13231-3 0  9999",
        "tle_line2": "2 28054  99.0047   4.5057 0006490 319.9597  62.5213 14.14424303143174"
      },
      "geometry": {
        "type": "Point",
        "coordinates": [
          178.00155996040647,
          -36.860843390909
        ]
      }
    },
    {
      "type": "Feature",
      "properties": {
        "norad_id": 28912,
        "name": "METEOSAT-9 (MSG-2)",
        "group": "weather",
        "lat": -3.6899192710980704,
        "lon": -99.94747086407747,
        "alt_km": 35770.48012465649,
        "timestamp": "2025-12-13T08:49:15.336299+00:00",
        "meta_object_name": "METEOSAT-9 (MSG-2)",
        "meta_object_id": "2005-049B",
        "meta_epoch": "2025-12-12T20:32:45.552192",
        "meta_mean_motion": 1.00276669,
        "meta_eccentricity": 0.00035766,
        "meta_inclination": 8.9401,
        "meta_ra_of_asc_node": 55.9765,
        "meta_arg_of_pericenter": 190.0838,
        "meta_mean_anomaly": 189.6047,
        "meta_ephemeris_type": 0,
        "meta_classification_type": "U",
        "meta_norad_cat_id": 28912,
        "meta_element_set_no": 999,
        "meta_rev_at_epoch": 513,
        "meta_bstar": 0,
        "meta_mean_motion_dot": 1.32e-06,
        "meta_mean_motion_ddot": 0,
        "tle_line1": "1 28912U 05049B   25346.85608278  .00000132  00000+0  00000+0 0  9998",
        "tle_line2": "2 28912   8.9401  55.9765 0003576 190.0838 189.6047  1.00276669  5134"
      },
      "geometry": {
        "type": "Point",
        "coordinates": [
          -99.94747086407747,
          -3.6899192710980704
        ]
      }
    },
    {
      "type": "Feature",
      "properties": {
        "norad_id": 29522,
        "name": "DMSP 5D-3 F17 (USA 191)",
        "group": "weather",
        "lat": 20.87921932967722,
        "lon": 176.10732641460237,
        "alt_km": 839.4737411940787,
        "timestamp": "2025-12-13T08:49:15.336317+00:00",
        "meta_object_name": "DMSP 5D-3 F17 (USA 191)",
        "meta_object_id": "2006-050A",
        "meta_epoch": "2025-12-12T23:35:11.144832",
        "meta_mean_motion": 14.14919687,
        "meta_eccentricity": 0.00094223,
        "meta_inclination": 98.7394,
        "meta_ra_of_asc_node": 352.3668,
        "meta_arg_of_pericenter": 224.0774,
        "meta_mean_anomaly": 135.9649,
        "meta_ephemeris_type": 0,
        "meta_classification_type": "U",
        "meta_norad_cat_id": 29522,
        "meta_element_set_no": 999,
        "meta_rev_at_epoch": 98608,
        "meta_bstar": 0.00016176488,
        "meta_mean_motion_dot": 2.69e-06,
        "meta_mean_motion_ddot": 0,
        "tle_line1": "1 29522U 06050A   25346.98276788  .00000269  00000+0  16176-3 0  9996",
        "tle_line2": "2 29522  98.7394 352.3668 0009422 224.0774 135.9649 14.14919687986086"
      },
      "geometry": {
        "type": "Point",
        "coordinates": [
          176.10732641460237,
          20.87921932967722
        ]
      }
    },
    {
      "type": "Feature",
      "properties": {
        "norad_id": 32958,
        "name": "FENGYUN 3A",
        "group": "weather",
        "lat": -61.94485417381952,
        "lon": 90.24478774927475,
        "alt_km": 831.7527857672876,
        "timestamp": "2025-12-13T08:49:15.336348+00:00",
        "meta_object_name": "FENGYUN 3A",
        "meta_object_id": "2008-026A",
        "meta_epoch": "2025-12-12T19:50:11.184576",
        "meta_mean_motion": 14.19514788,
        "meta_eccentricity": 0.000791,
        "meta_inclination": 98.6698,
        "meta_ra_of_asc_node": 286.3515,
        "meta_arg_of_pericenter": 310.0338,
        "meta_mean_anomaly": 50.0144,
        "meta_ephemeris_type": 0,
        "meta_classification_type": "U",
        "meta_norad_cat_id": 32958,
        "meta_element_set_no": 999,
        "meta_rev_at_epoch": 90896,
        "meta_bstar": 0.00012017926,
        "meta_mean_motion_dot": 2.1e-06,
        "meta_mean_motion_ddot": 0,
        "tle_line1": "1 32958U 08026A   25346.82651834  .00000210  00000+0  12018-3 0  9997",
        "tle_line2": "2 32958  98.6698 286.3515 0007910 310.0338  50.0144 14.19514788908964"
      },
      "geometry": {
        "type": "Point",
        "coordinates": [
          90.24478774927475,
          -61.94485417381952
        ]
      }
    },
    {
      "type": "Feature",
      "properties": {
        "norad_id": 35491,
        "name": "GOES 14",
        "group": "weather",
        "lat": 0.4089018314565897,
        "lon": 104.44793186091077,
        "alt_km": 35837.97957611969,
        "timestamp": "2025-12-13T08:49:15.336363+00:00",
        "meta_object_name": "GOES 14",
        "meta_object_id": "2009-033A",
        "meta_epoch": "2025-12-12T23:13:46.003584",
        "meta_mean_motion": 1.00096095,
        "meta_eccentricity": 7.598e-05,
        "meta_inclination": 1.2034,
        "meta_ra_of_asc_node": 85.3926,
        "meta_arg_of_pericenter": 163.8223,
        "meta_mean_anomaly": 71.235,
        "meta_ephemeris_type": 0,
        "meta_classification_type": "U",
        "meta_norad_cat_id": 35491,
        "meta_element_set_no": 999,
        "meta_rev_at_epoch": 472,
        "meta_bstar": 0,
        "meta_mean_motion_dot": -1.9e-07,
        "meta_mean_motion_ddot": 0,
        "tle_line1": "1 35491U 09033A   25346.96789356 -.00000019  00000+0  00000+0 0  9999",
        "tle_line2": "2 35491   1.2034  85.3926 0000759 163.8223  71.2350  1.00096095  4724"
      },
      "geometry": {
        "type": "Point",
        "coordinates": [
          104.44793186091077,
          0.4089018314565897
        ]
      }
    },
    {
      "type": "Feature",
      "properties": {
        "norad_id": 35951,
        "name": "DMSP 5D-3 F18 (USA 210)",
        "group": "weather",
        "lat": 25.410423664864876,
        "lon": -40.49584450789649,
        "alt_km": 835.1137155846191,
        "timestamp": "2025-12-13T08:49:15.336376+00:00",
        "meta_object_name": "DMSP 5D-3 F18 (USA 210)",
        "meta_object_id": "2009-057A",
        "meta_epoch": "2025-12-12T22:30:56.947104",
        "meta_mean_motion": 14.14769269,
        "meta_eccentricity": 0.00120424,
        "meta_inclination": 98.8835,
        "meta_ra_of_asc_node": 323.3379,
        "meta_arg_of_pericenter": 62.2303,
        "meta_mean_anomaly": 298.009,
        "meta_ephemeris_type": 0,
        "meta_classification_type": "U",
        "meta_norad_cat_id": 35951,
        "meta_element_set_no": 999,
        "meta_rev_at_epoch": 83325,
        "meta_bstar": 0.00021930326,
        "meta_mean_motion_dot": 3.78e-06,
        "meta_mean_motion_ddot": 0,
        "tle_line1": "1 35951U 09057A   25346.93815911  .00000378  00000+0  21930-3 0  9996",
        "tle_line2": "2 35951  98.8835 323.3379 0012042  62.2303 298.0090 14.14769269833259"
      },
      "geometry": {
        "type": "Point",
        "coordinates": [
          -40.49584450789649,
          25.410423664864876
        ]
      }
    },
    {
      "type": "Feature",
      "properties": {
        "norad_id": 36411,
        "name": "EWS-G2 (GOES 15)",
        "group": "weather",
        "lat": -0.15818096375282317,
        "lon": -83.97264938093498,
        "alt_km": 35763.2747196332,
        "timestamp": "2025-12-13T08:49:15.336390+00:00",
        "meta_object_name": "EWS-G2 (GOES 15)",
        "meta_object_id": "2010-008A",
        "meta_epoch": "2025-12-12T22:19:55.396992",
        "meta_mean_motion": 1.00269872,
        "meta_eccentricity": 0.0005713,
        "meta_inclination": 0.8146,
        "meta_ra_of_asc_node": 86.0682,
        "meta_arg_of_pericenter": 174.731,
        "meta_mean_anomaly": 217.4571,
        "meta_ephemeris_type": 0,
        "meta_classification_type": "U",
        "meta_norad_cat_id": 36411,
        "meta_element_set_no": 999,
        "meta_rev_at_epoch": 5777,
        "meta_bstar": 0,
        "meta_mean_motion_dot": 5.1e-07,
        "meta_mean_motion_ddot": 0,
        "tle_line1": "1 36411U 10008A   25346.93050228  .00000051  00000+0  00000+0 0  9997",
        "tle_line2": "2 36411   0.8146  86.0682 0005713 174.7310 217.4571  1.00269872 57773"
      },
      "geometry": {
        "type": "Point",
        "coordinates": [
          -83.97264938093498,
          -0.15818096375282317
        ]
      }
    }
  ]
}